[{"OBJECT_NAME":"SCD 1","OBJECT_ID":"1993-009B","EPOCH":"2025-03-09T18:13:49.371744","MEAN_MOTION":14.45762803,"ECCENTRICITY":0.0041869,"INCLINATION":24.9683,"RA_OF_ASC_NODE":194.3968,"ARG_OF_PERICENTER":263.7447,"MEAN_ANOMALY":245.0323,"EPHEMERIS_TYPE":0,"CLASSIFICATION_TYPE":"U","NORAD_CAT_ID":22490,"ELEMENT_SET_NO":999,"REV_AT_EPOCH":69382,"BSTAR":0.00017518,"MEAN_MOTION_DOT":8.24e-6,"MEAN_MOTION_DDOT":0},{"OBJECT_NAME":"TECHSAT 1B (GO-32)","OBJECT_ID":"1998-043D","EPOCH":"2025-03-09T21:01:07.525920","MEAN_MOTION":14.24268221,"ECCENTRICITY":0.0002322,"INCLINATION":98.9614,"RA_OF_ASC_NODE":46.126,"ARG_OF_PERICENTER":101.8579,"MEAN_ANOMALY":258.2859,"EPHEMERIS_TYPE":0,"CLASSIFICATION_TYPE":"U","NORAD_CAT_ID":25397,"ELEMENT_SET_NO":999,"REV_AT_EPOCH":38523,"BSTAR":0.000118,"MEAN_MOTION_DOT":2.26e-6,"MEAN_MOTION_DDOT":0},{"OBJECT_NAME":"SCD 2","OBJECT_ID":"1998-060A","EPOCH":"2025-03-09T07:09:14.444640","MEAN_MOTION":14.45206067,"ECCENTRICITY":0.0016656,"INCLINATION":24.9961,"RA_OF_ASC_NODE":58.4771,"ARG_OF_PERICENTER":251.0869,"MEAN_ANOMALY":252.082,"EPHEMERIS_TYPE":0,"CLASSIFICATION_TYPE":"U","NORAD_CAT_ID":25504,"ELEMENT_SET_NO":999,"REV_AT_EPOCH":39299,"BSTAR":0.00016971,"MEAN_MOTION_DOT":7.87e-6,"MEAN_MOTION_DDOT":0},{"OBJECT_NAME":"DLR-TUBSAT","OBJECT_ID":"1999-029B","EPOCH":"2025-03-09T20:57:13.037184","MEAN_MOTION":14.52207154,"ECCENTRICITY":0.0013586,"INCLINATION":98.6262,"RA_OF_ASC_NODE":45.2814,"ARG_OF_PERICENTER":326.6798,"MEAN_ANOMALY":33.354,"EPHEMERIS_TYPE":0,"CLASSIFICATION_TYPE":"U","NORAD_CAT_ID":25757,"ELEMENT_SET_NO":999,"REV_AT_EPOCH":36585,"BSTAR":0.00010449,"MEAN_MOTION_DOT":3.76e-6,"MEAN_MOTION_DDOT":0},{"OBJECT_NAME":"TERRA","OBJECT_ID":"1999-068A","EPOCH":"2025-03-09T21:53:31.081920","MEAN_MOTION":14.60521471,"ECCENTRICITY":0.0001181,"INCLINATION":98.0107,"RA_OF_ASC_NODE":130.2031,"ARG_OF_PERICENTER":224.9399,"MEAN_ANOMALY":246.1439,"EPHEMERIS_TYPE":0,"CLASSIFICATION_TYPE":"U","NORAD_CAT_ID":25994,"ELEMENT_SET_NO":999,"REV_AT_EPOCH":34194,"BSTAR":0.00021304,"MEAN_MOTION_DOT":9.89e-6,"MEAN_MOTION_DDOT":0},{"OBJECT_NAME":"MAROC-TUBSAT","OBJECT_ID":"2001-056D","EPOCH":"2025-03-09T11:12:40.614336","MEAN_MOTION":13.70235298,"ECCENTRICITY":0.0019082,"INCLINATION":99.765,"RA_OF_ASC_NODE":232.3838,"ARG_OF_PERICENTER":252.768,"MEAN_ANOMALY":173.9286,"EPHEMERIS_TYPE":0,"CLASSIFICATION_TYPE":"U","NORAD_CAT_ID":27004,"ELEMENT_SET_NO":999,"REV_AT_EPOCH":16254,"BSTAR":5.8135e-5,"MEAN_MOTION_DOT":5.0e-8,"MEAN_MOTION_DDOT":0},{"OBJECT_NAME":"AQUA","OBJECT_ID":"2002-022A","EPOCH":"2025-03-09T21:46:02.257248","MEAN_MOTION":14.60914924,"ECCENTRICITY":0.0001589,"INCLINATION":98.3663,"RA_OF_ASC_NODE":26.0921,"ARG_OF_PERICENTER":54.987,"MEAN_ANOMALY":337.5935,"EPHEMERIS_TYPE":0,"CLASSIFICATION_TYPE":"U","NORAD_CAT_ID":27424,"ELEMENT_SET_NO":999,"REV_AT_EPOCH":21545,"BSTAR":0.00049342,"MEAN_MOTION_DOT":2.368e-5,"MEAN_MOTION_DDOT":0},{"OBJECT_NAME":"IRS-P6 (RESOURCESAT-1)","OBJECT_ID":"2003-046A","EPOCH":"2025-03-09T22:03:08.152704","MEAN_MOTION":14.3589675,"ECCENTRICITY":0.0063403,"INCLINATION":98.2548,"RA_OF_ASC_NODE":121.5847,"ARG_OF_PERICENTER":294.6838,"MEAN_ANOMALY":189.5232,"EPHEMERIS_TYPE":0,"CLASSIFICATION_TYPE":"U","NORAD_CAT_ID":28051,"ELEMENT_SET_NO":999,"REV_AT_EPOCH":11389,"BSTAR":0.00017893,"MEAN_MOTION_DOT":4.89e-6,"MEAN_MOTION_DDOT":0},{"OBJECT_NAME":"SHIYAN 1 (SY-1)","OBJECT_ID":"2004-012A","EPOCH":"2025-03-09T16:29:43.876896","MEAN_MOTION":15.20353634,"ECCENTRICITY":0.0007735,"INCLINATION":97.9318,"RA_OF_ASC_NODE":114.903,"ARG_OF_PERICENTER":192.8259,"MEAN_ANOMALY":167.278,"EPHEMERIS_TYPE":0,"CLASSIFICATION_TYPE":"U","NORAD_CAT_ID":28220,"ELEMENT_SET_NO":999,"REV_AT_EPOCH":14021,"BSTAR":0.00082095,"MEAN_MOTION_DOT":0.00017832,"MEAN_MOTION_DDOT":0},{"OBJECT_NAME":"AURA","OBJECT_ID":"2004-026A","EPOCH":"2025-03-09T20:22:35.950944","MEAN_MOTION":14.60060523,"ECCENTRICITY":0.000142,"INCLINATION":98.2837,"RA_OF_ASC_NODE":18.5818,"ARG_OF_PERICENTER":67.9868,"MEAN_ANOMALY":292.1482,"EPHEMERIS_TYPE":0,"CLASSIFICATION_TYPE":"U","NORAD_CAT_ID":28376,"ELEMENT_SET_NO":999,"REV_AT_EPOCH":9842,"BSTAR":0.00049084,"MEAN_MOTION_DOT":2.311e-5,"MEAN_MOTION_DDOT":0},{"OBJECT_NAME":"IRS-P5 (CARTOSAT-1)","OBJECT_ID":"2005-017A","EPOCH":"2025-03-09T16:29:35.304288","MEAN_MOTION":14.8912512,"ECCENTRICITY":0.0002195,"INCLINATION":97.5804,"RA_OF_ASC_NODE":107.1041,"ARG_OF_PERICENTER":122.7882,"MEAN_ANOMALY":237.3547,"EPHEMERIS_TYPE":0,"CLASSIFICATION_TYPE":"U","NORAD_CAT_ID":28649,"ELEMENT_SET_NO":999,"REV_AT_EPOCH":7464,"BSTAR":0.00032472,"MEAN_MOTION_DOT":3.012e-5,"MEAN_MOTION_DDOT":0},{"OBJECT_NAME":"SINAH 1","OBJECT_ID":"2005-043D","EPOCH":"2025-03-09T21:01:54.632928","MEAN_MOTION":14.6353411,"ECCENTRICITY":0.0013484,"INCLINATION":98.2211,"RA_OF_ASC_NODE":197.4038,"ARG_OF_PERICENTER":292.3697,"MEAN_ANOMALY":67.6076,"EPHEMERIS_TYPE":0,"CLASSIFICATION_TYPE":"U","NORAD_CAT_ID":28893,"ELEMENT_SET_NO":999,"REV_AT_EPOCH":3259,"BSTAR":0.00019277,"MEAN_MOTION_DOT":9.52e-6,"MEAN_MOTION_DDOT":0},{"OBJECT_NAME":"EROS B","OBJECT_ID":"2006-014A","EPOCH":"2025-03-09T20:26:19.780512","MEAN_MOTION":15.30624267,"ECCENTRICITY":0.0004218,"INCLINATION":97.337,"RA_OF_ASC_NODE":182.2951,"ARG_OF_PERICENTER":2.6523,"MEAN_ANOMALY":357.4739,"EPHEMERIS_TYPE":0,"CLASSIFICATION_TYPE":"U","NORAD_CAT_ID":29079,"ELEMENT_SET_NO":999,"REV_AT_EPOCH":4790,"BSTAR":0.0016674,"MEAN_MOTION_DOT":0.00049566,"MEAN_MOTION_DDOT":0},{"OBJECT_NAME":"RESURS-DK 1","OBJECT_ID":"2006-021A","EPOCH":"2025-03-09T15:00:41.046048","MEAN_MOTION":15.10125814,"ECCENTRICITY":0.0007404,"INCLINATION":69.9332,"RA_OF_ASC_NODE":99.4868,"ARG_OF_PERICENTER":301.336,"MEAN_ANOMALY":58.7079,"EPHEMERIS_TYPE":0,"CLASSIFICATION_TYPE":"U","NORAD_CAT_ID":29228,"ELEMENT_SET_NO":999,"REV_AT_EPOCH":3236,"BSTAR":0.00027655,"MEAN_MOTION_DOT":4.418e-5,"MEAN_MOTION_DDOT":0},{"OBJECT_NAME":"ARIRANG-2 (KOMPSAT-2)","OBJECT_ID":"2006-031A","EPOCH":"2025-03-09T21:00:33.258816","MEAN_MOTION":14.64155442,"ECCENTRICITY":0.0015838,"INCLINATION":97.8437,"RA_OF_ASC_NODE":270.7264,"ARG_OF_PERICENTER":105.0499,"MEAN_ANOMALY":312.3349,"EPHEMERIS_TYPE":0,"CLASSIFICATION_TYPE":"U","NORAD_CAT_ID":29268,"ELEMENT_SET_NO":999,"REV_AT_EPOCH":99351,"BSTAR":0.00015184,"MEAN_MOTION_DOT":7.55e-6,"MEAN_MOTION_DDOT":0},{"OBJECT_NAME":"LAPAN-TUBSAT","OBJECT_ID":"2007-001A","EPOCH":"2025-03-09T21:47:33.423072","MEAN_MOTION":14.85083032,"ECCENTRICITY":0.0010853,"INCLINATION":98.1029,"RA_OF_ASC_NODE":53.7984,"ARG_OF_PERICENTER":255.5338,"MEAN_ANOMALY":104.4672,"EPHEMERIS_TYPE":0,"CLASSIFICATION_TYPE":"U","NORAD_CAT_ID":29709,"ELEMENT_SET_NO":999,"REV_AT_EPOCH":98222,"BSTAR":0.00017511,"MEAN_MOTION_DOT":1.441e-5,"MEAN_MOTION_DDOT":0},{"OBJECT_NAME":"HAIYANG-1B","OBJECT_ID":"2007-010A","EPOCH":"2025-03-09T22:02:14.234784","MEAN_MOTION":14.3084049,"ECCENTRICITY":0.0014447,"INCLINATION":98.3109,"RA_OF_ASC_NODE":65.0185,"ARG_OF_PERICENTER":134.2853,"MEAN_ANOMALY":225.9518,"EPHEMERIS_TYPE":0,"CLASSIFICATION_TYPE":"U","NORAD_CAT_ID":31113,"ELEMENT_SET_NO":999,"REV_AT_EPOCH":93423,"BSTAR":0.00011131,"MEAN_MOTION_DOT":2.51e-6,"MEAN_MOTION_DDOT":0}]
