SCD 1                   
1 22490U 93009B   25068.75959921  .00000824  00000+0  17518-3 0  9994
2 22490  24.9683 194.3968 0041869 263.7447 245.0323 14.45762803693829
TECHSAT 1B (GO-32)      
1 25397U 98043D   25068.87578155  .00000226  00000+0  11800-3 0  9999
2 25397  98.9614  46.1260 0002322 101.8579 258.2859 14.24268221385236
SCD 2                   
1 25504U 98060A   25068.29808385  .00000787  00000+0  16971-3 0  9991
2 25504  24.9961  58.4771 0016656 251.0869 252.0820 14.45206067392992
DLR-TUBSAT              
1 25757U 99029B   25068.87306756  .00000376  00000+0  10449-3 0  9994
2 25757  98.6262  45.2814 0013586 326.6798  33.3540 14.52207154365855
TERRA                   
1 25994U 99068A   25068.91216530  .00000989  00000+0  21304-3 0  9997
2 25994  98.0107 130.2031 0001181 224.9399 246.1439 14.60521471341946
MAROC-TUBSAT            
1 27004U 01056D   25068.46713674  .00000005  00000+0  58135-4 0  9994
2 27004  99.7650 232.3838 0019082 252.7680 173.9286 13.70235298162544
AQUA                    
1 27424U 02022A   25068.90697057  .00002368  00000+0  49342-3 0  9992
2 27424  98.3663  26.0921 0001589  54.9870 337.5935 14.60914924215454
IRS-P6 (RESOURCESAT-1)  
1 28051U 03046A   25068.91884436  .00000489  00000+0  17893-3 0  9994
2 28051  98.2548 121.5847 0063403 294.6838 189.5232 14.35896750113898
SHIYAN 1 (SY-1)         
1 28220U 04012A   25068.68731339  .00017832  00000+0  82095-3 0  9999
2 28220  97.9318 114.9030 0007735 192.8259 167.2780 15.20353634140210
AURA                    
1 28376U 04026A   25068.84902721  .00002311  00000+0  49084-3 0  9996
2 28376  98.2837  18.5818 0001420  67.9868 292.1482 14.60060523 98425
IRS-P5 (CARTOSAT-1)     
1 28649U 05017A   25068.68721417  .00003012  00000+0  32472-3 0  9995
2 28649  97.5804 107.1041 0002195 122.7882 237.3547 14.89125120 74640
SINAH 1                 
1 28893U 05043D   25068.87632677  .00000952  00000+0  19277-3 0  9993
2 28893  98.2211 197.4038 0013484 292.3697  67.6076 14.63534110 32594
EROS B                  
1 29079U 06014A   25068.85161783  .00049566  00000+0  16674-2 0  9993
2 29079  97.3370 182.2951 0004218   2.6523 357.4739 15.30624267 47903
RESURS-DK 1             
1 29228U 06021A   25068.62547507  .00004418  00000+0  27655-3 0  9993
2 29228  69.9332  99.4868 0007404 301.3360  58.7079 15.10125814 32360
ARIRANG-2 (KOMPSAT-2)   
1 29268U 06031A   25068.87538494  .00000755  00000+0  15184-3 0  9994
2 29268  97.8437 270.7264 0015838 105.0499 312.3349 14.64155442993516
LAPAN-TUBSAT            
1 29709U 07001A   25068.90802573  .00001441  00000+0  17511-3 0  9997
2 29709  98.1029  53.7984 0010853 255.5338 104.4672 14.85083032982223
HAIYANG-1B              
1 31113U 07010A   25068.91822031  .00000251  00000+0  11131-3 0  9991
2 31113  98.3109  65.0185 0014447 134.2853 225.9518 14.30840490934238
